{"fetched_at":"2026-03-29T16:36:15Z","count":15609,"tles":[{"name":"KUIPER-00058","line1":"1 64518U 25134U   26087.88436673  .00003015  00000+0  42426-3 0  9996","line2":"2 64518  51.9002 140.6565 0000688  58.8382 301.2648 14.79934738 43024","category":"Other"}]}